NORAD_CAT_ID,OBJECT_NAME,OBJECT_TYPE,EPOCH,MEAN_MOTION,ECCENTRICITY,INCLINATION,RA_OF_ASC_NODE,ARG_OF_PERICENTER,MEAN_ANOMALY,BSTAR,MEAN_MOTION_DOT,MEAN_MOTION_DDOT,TLE_LINE0,TLE_LINE1,TLE_LINE2,SEMIMAJOR_AXIS,PERIOD,APOGEE,PERIGEE,DECAYED
52608.0,STARLINK-3979,PAYLOAD,2022-11-03 10:46:49,15.08846486,0.000258,53.2199,5.9671,30.464,329.6502,0.00015372,2.159e-05,0.0,0 STARLINK-3979,1 52608U 22052L   22307.44918379  .00002159  00000-0  15372-3 0  9999,2 52608  53.2199   5.9671 0002580  30.4640 329.6502 15.08846486 26344,6917.861,95.437,541.51,537.941,0.0
52608.0,STARLINK-3979,PAYLOAD,2022-11-04 02:40:39,15.0885585,0.0002544,53.2204,2.9929,29.8388,330.2749,0.0001631999999999,2.311e-05,0.0,0 STARLINK-3979,1 52608U 22052L   22308.11157240  .00002311  00000-0  16320-3 0  9990,2 52608  53.2204   2.9929 0002544  29.8388 330.2749 15.08855850 26813,6917.831999999999,95.437,541.457,537.937,0.0
52608.0,STARLINK-3979,PAYLOAD,2022-11-04 10:37:36,15.08838089,0.0002631,53.2198,1.5055,22.4661,337.6446,2.336e-06,-2.51e-06,0.0,0 STARLINK-3979,1 52608U 22052L   22308.44278666 -.00000251  00000-0  23360-5 0  9998,2 52608  53.2198   1.5055 0002631  22.4661 337.6446 15.08838089 26865,6917.886,95.438,541.571,537.931,0.0
52608.0,STARLINK-3979,PAYLOAD,2022-11-05 04:06:52,15.08830642,0.000244,53.2194,358.2351,30.306,329.8073,-4.4639e-05,-9.99e-06,0.0,0 STARLINK-3979,1 52608U 22052L   22309.17143616 -.00000999  00000-0 -44639-4 0  9996,2 52608  53.2194 358.2351 0002440  30.3060 329.8073 15.08830642 26979,6917.909000000002,95.438,541.462,538.086,0.0
52608.0,STARLINK-3979,PAYLOAD,2022-11-05 08:53:01,15.088332199999998,0.0002524,53.2192,357.3439,29.5008,330.6126,-6.963600000000001e-05,-1.396e-05,0.0,0 STARLINK-3979,1 52608U 22052L   22309.37015659 -.00001396  00000-0 -69636-4 0  9999,2 52608  53.2192 357.3439 0002524  29.5008 330.6126 15.08833220 26636,6917.901,95.438,541.512,538.02,0.0
52608.0,STARLINK-3979,PAYLOAD,2022-11-05 20:00:42,15.08843733,0.0002575,53.2193,355.2621,29.4655,330.6482,-6.7041e-05,-1.355e-05,0.0,0 STARLINK-3979,1 52608U 22052L   22309.83382958 -.00001355  00000-0 -67041-4 0  9992,2 52608  53.2193 355.2621 0002575  29.4655 330.6482 15.08843733 26703,6917.869000000002,95.437,541.515,537.953,0.0
52608.0,STARLINK-3979,PAYLOAD,2022-11-06 10:19:12,15.08825071,0.0002813,53.22,352.5844,25.9739,334.1394,-8.7788e-06,-4.28e-06,0.0,0 STARLINK-3979,1 52608U 22052L   22310.43000122 -.00000428  00000-0 -87788-5 0  9991,2 52608  53.2200 352.5844 0002813  25.9739 334.1394 15.08825071 27165,6917.926,95.438,541.737,537.845,0.0
52608.0,STARLINK-3979,PAYLOAD,2022-11-07 02:13:03,15.088278,0.0002482,53.2191,349.61300000000006,26.13300000000001,333.9787,9.2389e-05,1.182e-05,0.0,0 STARLINK-3979,1 52608U 22052L   22311.09239914  .00001182  00000-0  92389-4 0  9995,2 52608  53.2191 349.6130 0002482  26.1330 333.9787 15.08827800 27267,6917.918000000002,95.438,541.5,538.066,0.0
52608.0,STARLINK-3979,PAYLOAD,2022-11-07 11:45:22,15.08829826,0.000255,53.2195,347.8276,26.7647,333.3476,0.00010802,1.431e-05,0.0,0 STARLINK-3979,1 52608U 22052L   22311.48984179  .00001431  00000-0  10802-3 0  9994,2 52608  53.2195 347.8276 0002550  26.7647 333.3476 15.08829826 26959,6917.911,95.438,541.5409999999998,538.012,0.0
52608.0,STARLINK-3979,PAYLOAD,2022-11-08 02:03:49,15.08845065,0.0002528,53.219,345.1517,26.2849,333.8271,0.00016708,2.372e-05,0.0,0 STARLINK-3979,1 52608U 22052L   22312.08599125  .00002372  00000-0  16708-3 0  9990,2 52608  53.2190 345.1517 0002528  26.2849 333.8271 15.08845065 27410,6917.865,95.437,541.479,537.981,0.0
52608.0,STARLINK-3979,PAYLOAD,2022-11-08 08:25:21,15.08850177,0.0002503,53.2192,343.962,26.428,333.6839,0.00020087,2.911e-05,0.0,0 STARLINK-3979,1 52608U 22052L   22312.35094583  .00002911  00000-0  20087-3 0  9992,2 52608  53.2192 343.9620 0002503  26.4280 333.6839 15.08850177 27088,6917.849,95.437,541.446,537.9830000000002,0.0
52608.0,STARLINK-3979,PAYLOAD,2022-11-09 01:54:35,15.08857257,0.0002532,53.2192,340.6912,25.5068,334.6049,0.0002163,3.157e-05,0.0,0 STARLINK-3979,1 52608U 22052L   22313.07957746  .00003157  00000-0  21630-3 0  9999,2 52608  53.2192 340.6912 0002532  25.5068 334.6049 15.08857257 27565,6917.828,95.436,541.444,537.941,0.0
52608.0,STARLINK-3979,PAYLOAD,2022-11-09 08:16:08,15.08855026,0.0002988,53.2182,339.5049,23.5837,336.5292,0.0002025,2.937e-05,0.0,0 STARLINK-3979,1 52608U 22052L   22313.34454138  .00002937  00000-0  20250-3 0  9998,2 52608  53.2182 339.5049 0002988  23.5837 336.5292 15.08855026 27607,6917.834,95.437,541.7669999999998,537.632,0.0
52608.0,STARLINK-3979,PAYLOAD,2022-11-09 19:23:52,15.08820115,0.00027,53.2191,337.4209,25.3227,334.7897,-0.00015577,-2.765e-05,0.0,0 STARLINK-3979,1 52608U 22052L   22313.80825200 -.00002765  00000-0 -15577-3 0  9998,2 52608  53.2191 337.4209 0002700  25.3227 334.7897 15.08820115 27676,6917.941,95.439,541.674,537.938,0.0
52608.0,STARLINK-3979,PAYLOAD,2022-11-09 20:59:15,15.08819798,0.0002594,53.2182,337.1234,22.0408,338.0695,-0.00034917,-5.838e-05,0.0,0 STARLINK-3979,1 52608U 22052L   22313.87448162 -.00005838  00000-0 -34917-3 0  9996,2 52608  53.2182 337.1234 0002594  22.0408 338.0695 15.08819798 27316,6917.941999999999,95.439,541.602,538.013,0.0
52608.0,STARLINK-3979,PAYLOAD,2022-11-10 01:45:24,15.08819185,0.0002802,53.2181,336.232,23.1287,336.9831,-0.00033601,-5.629e-05,0.0,0 STARLINK-3979,1 52608U 22052L   22314.07320447 -.00005629  00000-0 -33601-3 0  9991,2 52608  53.2181 336.2320 0002802  23.1287 336.9831 15.08819185 27713,6917.944,95.439,541.747,537.871,0.0
52608.0,STARLINK-3979,PAYLOAD,2022-11-10 08:06:57,15.08822531,0.0002601,53.2183,335.042,22.8297,337.281,-0.00029539,-4.984e-05,0.0,0 STARLINK-3979,1 52608U 22052L   22314.33816510 -.00004984  00000-0 -29539-3 0  9999,2 52608  53.2183 335.0420 0002601  22.8297 337.2810 15.08822531 27380,6917.934,95.439,541.5980000000002,537.999,0.0
52608.0,STARLINK-3979,PAYLOAD,2022-11-11 01:36:12,15.08831126,0.0002418,53.2182,331.7705,25.7695,334.3417,4.227600000000001e-05,3.84e-06,0.0,0 STARLINK-3979,1 52608U 22052L   22315.06680773  .00000384  00000-0  42276-4 0  9992,2 52608  53.2182 331.7705 0002418  25.7695 334.3417 15.08831126 27862,6917.908,95.438,541.445,538.1,0.0
52608.0,STARLINK-3979,PAYLOAD,2022-11-11 07:57:44,15.08837311,0.0002615,53.2183,330.5817,24.5695,335.5421,0.00019254,2.777e-05,0.0,0 STARLINK-3979,1 52608U 22052L   22315.33176821  .00002777  00000-0  19254-3 0  9993,2 52608  53.2183 330.5817 0002615  24.5695 335.5421 15.08837311 27534,6917.889,95.438,541.563,537.945,0.0
52608.0,STARLINK-3979,PAYLOAD,2022-11-11 20:40:50,15.08847911,0.0002668,53.2182,328.2029,23.0905,337.0207,0.00071617,0.00011131,0.0,0 STARLINK-3979,1 52608U 22052L   22315.86169119  .00011131  00000-0  71617-3 0  9998,2 52608  53.2182 328.2029 0002668  23.0905 337.0207 15.08847911 27613,6917.856,95.437,541.567,537.876,0.0
52608.0,STARLINK-3979,PAYLOAD,2022-11-12 01:26:59,15.08851196,0.000265,53.2183,327.3105,23.7191,336.3923,0.00044318,6.774e-05,0.0,0 STARLINK-3979,1 52608U 22052L   22316.06041100  .00006774  00000-0  44318-3 0  9995,2 52608  53.2183 327.3105 0002650  23.7191 336.3923 15.08851196 28016,6917.846,95.437,541.544,537.878,0.0
52608.0,STARLINK-3979,PAYLOAD,2022-11-12 07:48:31,15.08857401,0.0002675,53.2183,326.1214,23.6338,336.4777,0.00057223,8.835e-05,0.0,0 STARLINK-3979,1 52608U 22052L   22316.32536815  .00008835  00000-0  57223-3 0  9995,2 52608  53.2183 326.1214 0002675  23.6338 336.4777 15.08857401 27688,6917.8269999999975,95.436,541.543,537.842,0.0
52608.0,STARLINK-3979,PAYLOAD,2022-11-12 20:31:36,15.08854053,0.0002707,53.2179,323.7419,24.1726,335.9393,0.00037313,5.657e-05,0.0,0 STARLINK-3979,1 52608U 22052L   22316.85528572  .00005657  00000-0  37313-3 0  9991,2 52608  53.2179 323.7419 0002707  24.1726 335.9393 15.08854053 27763,6917.837,95.437,541.575,537.83,0.0
52608.0,STARLINK-3979,PAYLOAD,2022-11-13 02:53:09,15.08854088,0.0002671,53.2185,322.5529,22.1513,337.9594,0.00026616,3.952e-05,0.0,0 STARLINK-3979,1 52608U 22052L   22317.12024337  .00003952  00000-0  26616-3 0  9992,2 52608  53.2185 322.5529 0002671  22.1513 337.9594 15.08854088 28170,6917.837,95.437,541.55,537.855,0.0
52608.0,STARLINK-3979,PAYLOAD,2022-11-13 07:39:18,15.08858299,0.0002713,53.2185,321.6608,21.9186,338.1922,0.00047671,7.311e-05,0.0,0 STARLINK-3979,1 52608U 22052L   22317.31896118  .00007311  00000-0  47671-3 0  9994,2 52608  53.2185 321.6608 0002713  21.9186 338.1922 15.08858299 27836,6917.824000000001,95.436,541.566,537.813,0.0
52608.0,STARLINK-3979,PAYLOAD,2022-11-14 09:05:28,15.0883923,0.0002725,53.218,316.9024,26.8995,333.2138,-3.7383e-05,-8.83e-06,0.0,0 STARLINK-3979,1 52608U 22052L   22318.37880483 -.00000883  00000-0 -37383-4 0  9998,2 52608  53.2180 316.9024 0002725  26.8995 333.2138 15.08839230 28363,6917.8830000000025,95.438,541.633,537.863,0.0
52608.0,STARLINK-3979,PAYLOAD,2022-11-14 17:02:24,15.08848913,0.0002759,53.219,315.4166,26.1146,333.9985,4.7073e-05,4.61e-06,0.0,0 STARLINK-3979,1 52608U 22052L   22318.71000148  .00000461  00000-0  47073-4 0  9995,2 52608  53.2190 315.4166 0002759  26.1146 333.9985 15.08848913 28043,6917.853,95.437,541.627,537.81,0.0
52608.0,STARLINK-3979,PAYLOAD,2022-11-15 07:20:52,15.08840992,0.0002792,53.219,312.7398,27.0547,333.059,2.7717e-05,1.53e-06,0.0,0 STARLINK-3979,1 52608U 22052L   22319.30616802  .00000153  00000-0  27717-4 0  9992,2 52608  53.2190 312.7398 0002792  27.0547 333.0590 15.08840992 28505,6917.877,95.437,541.674,537.811,0.0
52608.0,STARLINK-3979,PAYLOAD,2022-11-15 12:07:01,15.08842992,0.000294,53.2191,311.8476,27.285,332.8296,1.3594e-05,-7.2e-07,0.0,0 STARLINK-3979,1 52608U 22052L   22319.50488395 -.00000072  00000-0  13594-4 0  9997,2 52608  53.2191 311.8476 0002940  27.2850 332.8296 15.08842992 28161,6917.871,95.437,541.77,537.702,0.0
